ORBCOMM-X               
1 21576U 91050C   24308.89817118  .00002273  00000+0  69339-3 0  9992
2 21576  98.3738  13.7891 0004414 135.8385 224.3158 14.42881980749624
ORBCOMM FM01            
1 23545U 95017A   24308.62921242  .00022762  00000+0  26900-2 0  9993
2 23545  69.9656 274.5146 0007991 299.3676  60.6677 14.84595478578961
ORBCOMM FM02            
1 23546U 95017B   24308.69440969  .00026300  00000+0  31153-2 0  9991
2 23546  69.9671 294.0238 0010106 299.9723  60.0425 14.84444469578619
ORBCOMM FM10            
1 25113U 97084B   24308.90364914  .00008448  00000+0  24860-2 0  9998
2 25113  45.0162  10.1438 0004484 187.8868 172.1913 14.44013081583933
ORBCOMM FM11            
1 25114U 97084C   24308.87165538  .00007964  00000+0  23553-2 0  9996
2 25114  45.0149  10.5496 0005308 183.6097 176.4716 14.43817081408891
ORBCOMM FM12            
1 25115U 97084D   24308.90513434  .00008386  00000+0  24787-2 0  9992
2 25115  45.0158  10.1461 0004432 188.8587 171.2186 14.43803144408695
ORBCOMM FM09            
1 25116U 97084E   24308.57572943  .00007879  00000+0  23348-2 0  9994
2 25116  45.0162  12.4720 0004840 165.2743 194.8249 14.43733397408851
