<?xml version="1.0" encoding="UTF-8"?>
<ndm xmlns:xsi="http://www.w3.org/2001/XMLSchema-instance" xsi:noNamespaceSchemaLocation="https://sanaregistry.org/r/ndmxml_unqualified/ndmxml-2.0.0-master-2.0.xsd">
<omm id="CCSDS_OMM_VERS" version="2.0">
<header><CREATION_DATE/><ORIGINATOR/></header><body><segment><metadata><OBJECT_NAME>ORBCOMM-X</OBJECT_NAME><OBJECT_ID>1991-050C</OBJECT_ID><CENTER_NAME>EARTH</CENTER_NAME><REF_FRAME>TEME</REF_FRAME><TIME_SYSTEM>UTC</TIME_SYSTEM><MEAN_ELEMENT_THEORY>SGP4</MEAN_ELEMENT_THEORY></metadata><data><meanElements><EPOCH>2024-11-03T21:33:21.989952</EPOCH><MEAN_MOTION>14.42881980</MEAN_MOTION><ECCENTRICITY>.0004414</ECCENTRICITY><INCLINATION>98.3738</INCLINATION><RA_OF_ASC_NODE>13.7891</RA_OF_ASC_NODE><ARG_OF_PERICENTER>135.8385</ARG_OF_PERICENTER><MEAN_ANOMALY>224.3158</MEAN_ANOMALY></meanElements><tleParameters><EPHEMERIS_TYPE>0</EPHEMERIS_TYPE><CLASSIFICATION_TYPE>U</CLASSIFICATION_TYPE><NORAD_CAT_ID>21576</NORAD_CAT_ID><ELEMENT_SET_NO>999</ELEMENT_SET_NO><REV_AT_EPOCH>74962</REV_AT_EPOCH><BSTAR>.69339E-3</BSTAR><MEAN_MOTION_DOT>.2273E-4</MEAN_MOTION_DOT><MEAN_MOTION_DDOT>0</MEAN_MOTION_DDOT></tleParameters></data></segment></body></omm>
<omm id="CCSDS_OMM_VERS" version="2.0">
<header><CREATION_DATE/><ORIGINATOR/></header><body><segment><metadata><OBJECT_NAME>ORBCOMM FM01</OBJECT_NAME><OBJECT_ID>1995-017A</OBJECT_ID><CENTER_NAME>EARTH</CENTER_NAME><REF_FRAME>TEME</REF_FRAME><TIME_SYSTEM>UTC</TIME_SYSTEM><MEAN_ELEMENT_THEORY>SGP4</MEAN_ELEMENT_THEORY></metadata><data><meanElements><EPOCH>2024-11-03T15:06:03.953088</EPOCH><MEAN_MOTION>14.84595478</MEAN_MOTION><ECCENTRICITY>.0007991</ECCENTRICITY><INCLINATION>69.9656</INCLINATION><RA_OF_ASC_NODE>274.5146</RA_OF_ASC_NODE><ARG_OF_PERICENTER>299.3676</ARG_OF_PERICENTER><MEAN_ANOMALY>60.6677</MEAN_ANOMALY></meanElements><tleParameters><EPHEMERIS_TYPE>0</EPHEMERIS_TYPE><CLASSIFICATION_TYPE>U</CLASSIFICATION_TYPE><NORAD_CAT_ID>23545</NORAD_CAT_ID><ELEMENT_SET_NO>999</ELEMENT_SET_NO><REV_AT_EPOCH>57896</REV_AT_EPOCH><BSTAR>.269E-2</BSTAR><MEAN_MOTION_DOT>.22762E-3</MEAN_MOTION_DOT><MEAN_MOTION_DDOT>0</MEAN_MOTION_DDOT></tleParameters></data></segment></body></omm>
<omm id="CCSDS_OMM_VERS" version="2.0">
<header><CREATION_DATE/><ORIGINATOR/></header><body><segment><metadata><OBJECT_NAME>ORBCOMM FM02</OBJECT_NAME><OBJECT_ID>1995-017B</OBJECT_ID><CENTER_NAME>EARTH</CENTER_NAME><REF_FRAME>TEME</REF_FRAME><TIME_SYSTEM>UTC</TIME_SYSTEM><MEAN_ELEMENT_THEORY>SGP4</MEAN_ELEMENT_THEORY></metadata><data><meanElements><EPOCH>2024-11-03T16:39:56.997216</EPOCH><MEAN_MOTION>14.84444469</MEAN_MOTION><ECCENTRICITY>.0010106</ECCENTRICITY><INCLINATION>69.9671</INCLINATION><RA_OF_ASC_NODE>294.0238</RA_OF_ASC_NODE><ARG_OF_PERICENTER>299.9723</ARG_OF_PERICENTER><MEAN_ANOMALY>60.0425</MEAN_ANOMALY></meanElements><tleParameters><EPHEMERIS_TYPE>0</EPHEMERIS_TYPE><CLASSIFICATION_TYPE>U</CLASSIFICATION_TYPE><NORAD_CAT_ID>23546</NORAD_CAT_ID><ELEMENT_SET_NO>999</ELEMENT_SET_NO><REV_AT_EPOCH>57861</REV_AT_EPOCH><BSTAR>.31153E-2</BSTAR><MEAN_MOTION_DOT>.263E-3</MEAN_MOTION_DOT><MEAN_MOTION_DDOT>0</MEAN_MOTION_DDOT></tleParameters></data></segment></body></omm>
<omm id="CCSDS_OMM_VERS" version="2.0">
<header><CREATION_DATE/><ORIGINATOR/></header><body><segment><metadata><OBJECT_NAME>ORBCOMM FM10</OBJECT_NAME><OBJECT_ID>1997-084B</OBJECT_ID><CENTER_NAME>EARTH</CENTER_NAME><REF_FRAME>TEME</REF_FRAME><TIME_SYSTEM>UTC</TIME_SYSTEM><MEAN_ELEMENT_THEORY>SGP4</MEAN_ELEMENT_THEORY></metadata><data><meanElements><EPOCH>2024-11-03T21:41:15.285696</EPOCH><MEAN_MOTION>14.44013081</MEAN_MOTION><ECCENTRICITY>.0004484</ECCENTRICITY><INCLINATION>45.0162</INCLINATION><RA_OF_ASC_NODE>10.1438</RA_OF_ASC_NODE><ARG_OF_PERICENTER>187.8868</ARG_OF_PERICENTER><MEAN_ANOMALY>172.1913</MEAN_ANOMALY></meanElements><tleParameters><EPHEMERIS_TYPE>0</EPHEMERIS_TYPE><CLASSIFICATION_TYPE>U</CLASSIFICATION_TYPE><NORAD_CAT_ID>25113</NORAD_CAT_ID><ELEMENT_SET_NO>999</ELEMENT_SET_NO><REV_AT_EPOCH>58393</REV_AT_EPOCH><BSTAR>.2486E-2</BSTAR><MEAN_MOTION_DOT>.8448E-4</MEAN_MOTION_DOT><MEAN_MOTION_DDOT>0</MEAN_MOTION_DDOT></tleParameters></data></segment></body></omm>
<omm id="CCSDS_OMM_VERS" version="2.0">
<header><CREATION_DATE/><ORIGINATOR/></header><body><segment><metadata><OBJECT_NAME>ORBCOMM FM11</OBJECT_NAME><OBJECT_ID>1997-084C</OBJECT_ID><CENTER_NAME>EARTH</CENTER_NAME><REF_FRAME>TEME</REF_FRAME><TIME_SYSTEM>UTC</TIME_SYSTEM><MEAN_ELEMENT_THEORY>SGP4</MEAN_ELEMENT_THEORY></metadata><data><meanElements><EPOCH>2024-11-03T20:55:11.024832</EPOCH><MEAN_MOTION>14.43817081</MEAN_MOTION><ECCENTRICITY>.0005308</ECCENTRICITY><INCLINATION>45.0149</INCLINATION><RA_OF_ASC_NODE>10.5496</RA_OF_ASC_NODE><ARG_OF_PERICENTER>183.6097</ARG_OF_PERICENTER><MEAN_ANOMALY>176.4716</MEAN_ANOMALY></meanElements><tleParameters><EPHEMERIS_TYPE>0</EPHEMERIS_TYPE><CLASSIFICATION_TYPE>U</CLASSIFICATION_TYPE><NORAD_CAT_ID>25114</NORAD_CAT_ID><ELEMENT_SET_NO>999</ELEMENT_SET_NO><REV_AT_EPOCH>40889</REV_AT_EPOCH><BSTAR>.23553E-2</BSTAR><MEAN_MOTION_DOT>.7964E-4</MEAN_MOTION_DOT><MEAN_MOTION_DDOT>0</MEAN_MOTION_DDOT></tleParameters></data></segment></body></omm>
<omm id="CCSDS_OMM_VERS" version="2.0">
<header><CREATION_DATE/><ORIGINATOR/></header><body><segment><metadata><OBJECT_NAME>ORBCOMM FM12</OBJECT_NAME><OBJECT_ID>1997-084D</OBJECT_ID><CENTER_NAME>EARTH</CENTER_NAME><REF_FRAME>TEME</REF_FRAME><TIME_SYSTEM>UTC</TIME_SYSTEM><MEAN_ELEMENT_THEORY>SGP4</MEAN_ELEMENT_THEORY></metadata><data><meanElements><EPOCH>2024-11-03T21:43:23.606976</EPOCH><MEAN_MOTION>14.43803144</MEAN_MOTION><ECCENTRICITY>.0004432</ECCENTRICITY><INCLINATION>45.0158</INCLINATION><RA_OF_ASC_NODE>10.1461</RA_OF_ASC_NODE><ARG_OF_PERICENTER>188.8587</ARG_OF_PERICENTER><MEAN_ANOMALY>171.2186</MEAN_ANOMALY></meanElements><tleParameters><EPHEMERIS_TYPE>0</EPHEMERIS_TYPE><CLASSIFICATION_TYPE>U</CLASSIFICATION_TYPE><NORAD_CAT_ID>25115</NORAD_CAT_ID><ELEMENT_SET_NO>999</ELEMENT_SET_NO><REV_AT_EPOCH>40869</REV_AT_EPOCH><BSTAR>.24787E-2</BSTAR><MEAN_MOTION_DOT>.8386E-4</MEAN_MOTION_DOT><MEAN_MOTION_DDOT>0</MEAN_MOTION_DDOT></tleParameters></data></segment></body></omm>
<omm id="CCSDS_OMM_VERS" version="2.0">
<header><CREATION_DATE/><ORIGINATOR/></header><body><segment><metadata><OBJECT_NAME>ORBCOMM FM09</OBJECT_NAME><OBJECT_ID>1997-084E</OBJECT_ID><CENTER_NAME>EARTH</CENTER_NAME><REF_FRAME>TEME</REF_FRAME><TIME_SYSTEM>UTC</TIME_SYSTEM><MEAN_ELEMENT_THEORY>SGP4</MEAN_ELEMENT_THEORY></metadata><data><meanElements><EPOCH>2024-11-03T13:49:03.022752</EPOCH><MEAN_MOTION>14.43733397</MEAN_MOTION><ECCENTRICITY>.000484</ECCENTRICITY><INCLINATION>45.0162</INCLINATION><RA_OF_ASC_NODE>12.4720</RA_OF_ASC_NODE><ARG_OF_PERICENTER>165.2743</ARG_OF_PERICENTER><MEAN_ANOMALY>194.8249</MEAN_ANOMALY></meanElements><tleParameters><EPHEMERIS_TYPE>0</EPHEMERIS_TYPE><CLASSIFICATION_TYPE>U</CLASSIFICATION_TYPE><NORAD_CAT_ID>25116</NORAD_CAT_ID><ELEMENT_SET_NO>999</ELEMENT_SET_NO><REV_AT_EPOCH>40885</REV_AT_EPOCH><BSTAR>.23348E-2</BSTAR><MEAN_MOTION_DOT>.7879E-4</MEAN_MOTION_DOT><MEAN_MOTION_DDOT>0</MEAN_MOTION_DDOT></tleParameters></data></segment></body></omm>

</ndm>
